0 PSLV DEB
1 27130U 01049CA  13281.47962991  .00000800  00000-0  12709-3 0    68
2 27130 097.8512 235.3190 0016342 256.6590 218.8741 14.74629391633604
0 PSLV DEB
1 27130U 01049CA  13282.48870493  .00000914  00000-0  14419-3 0    72
2 27130 097.8513 236.2973 0016376 253.1392 175.9827 14.74636004633756
0 PSLV DEB
1 27130U 01049CA  13283.50315914  .00000901  00000-0  14221-3 0    86
2 27130 097.8514 237.2808 0016399 249.6045 161.6661 14.74637807633902
0 PSLV DEB
1 27130U 01049CA  13285.87159505  .00000885  00000-0  13989-3 0   104
2 27130 097.8519 239.5769 0016525 241.4110 135.5374 14.74641543634254
0 PSLV DEB
1 27130U 01049CA  13287.11401162  .00001037  00000-0  16248-3 0   114
2 27130 097.8524 240.7813 0016600 237.1503 251.4273 14.74643973634431
0 PSLV DEB
1 27130U 01049CA  13288.19897539  .00001517  00000-0  23429-3 0   123
2 27130 097.8527 241.8332 0016672 233.4669 251.3844 14.74648704634590
0 PSLV DEB
1 27130U 01049CA  13289.48976515  .00001084  00000-0  16961-3 0   131
2 27130 097.8530 243.0847 0016763 229.0315 264.1202 14.74653220634789
0 PSLV DEB
1 27130U 01049CA  13290.62800860  .00001222  00000-0  19018-3 0   149
2 27130 097.8533 244.1883 0016857 225.2184 186.9167 14.74655730634958
0 PSLV DEB
1 27130U 01049CA  13291.84942969  .00001295  00000-0  20112-3 0   159
2 27130 097.8535 245.3727 0016937 221.1010 191.3344 14.74657714635134
0 PSLV DEB
1 27130U 01049CA  13292.86797395  .00001400  00000-0  21673-3 0   165
2 27130 097.8535 246.3605 0017007 217.5993 198.7728 14.74660291635285
0 PSLV DEB
1 27130U 01049CA  13294.17014866  .00001354  00000-0  20981-3 0   176
2 27130 097.8537 247.6233 0017125 213.1960 271.9391 14.74664913635471
0 PSLV DEB
1 27130U 01049CA  13295.45749638  .00001448  00000-0  22384-3 0   184
2 27130 097.8538 248.8718 0017224 208.9787 266.2744 14.74668437635667
